C/2019 JU6 (ATLAS),e,148.3162,21.7300,94.8590,538760,0.0000000,0.99999622,0.0000,06/02.7871/2019,2000,g 14.5,4.0
# From MPEC 2022-O08
C/2019 K1 (ATLAS),e,87.0132,73.3069,265.7606,3696,0.0000044,0.99945383,0.0000,02/11.5716/2020,2000,g 10.0,4.0
# From MPC119997
C/2019 K4 (Ye),e,105.2935,180.2381,139.9950,1573,0.0000158,0.99855373,0.0000,06/15.2496/2019,2000,g 12.5,4.0
# From MPEC 2021-P47
C/2019 K5 (Young),e,15.3031,177.2347,175.1535,169.5570,0.0004464,0.98790057,0.0000,06/22.0569/2019,2000,g 13.0,4.0
# From MPEC 2021-P47
C/2019 K6 (PANSTARRS),e,132.3819,42.9961,187.4758,1051,0.0000289,0.99627076,0.0000,05/19.1243/2020,2000,g 11.5,4.0
# From MPEC 2024-GJ3
C/2019 K7 (Smith),h,06/17.4668/2020,103.4942,308.0186,27.3887,1.000726,4.476460,2000,6.0,4.0
# From MPEC 2021-R75
C/2019 K8 (ATLAS),e,93.0691,291.0014,85.3632,1900,0.0000119,0.99831811,0.0000,07/20.8763/2019,2000,g 11.5,4.0
# From MPEC 2023-A50
C/2019 L1 (PANSTARRS),e,9.9737,254.4269,50.0416,9.826061,0.0319989,0.70442369,61.0732,10/29.0/2024,2000,g 13.5,4.0
# From MPC115886
C/2019 L2 (NEOWISE),e,152.1779,12.5677,18.8636,25.13688,0.0078205,0.93539598,15.9211,10/29.0/2024,2000,g 16.0,4.0
# From MPEC 2024-GJ3
P/2019 LD2 (ATLAS),e,11.5990,179.1952,117.2677,5.184950,0.0834809,0.12866726,143.9739,10/29.0/2024,2000,g  8.5,4.0
# From MPEC 2024-P23
C/2019 L3 (ATLAS),h,01/09.9694/2022,48.3446,290.7321,171.6986,1.002817,3.556282,2000,4.5,4.0
# From MPEC 2020-K19
P/2019 LM4 (Palomar),e,36.4184,72.8433,68.2538,5.703130,0.0723659,0.58573709,141.7647,10/29.0/2024,2000,g  9.5,4.0
# From MPC118095
C/2019 LB7 (Kleyna),e,164.2849,3.9532,336.7241,34.94514,0.0047712,0.92857379,9.7480,10/29.0/2024,2000,g 17.0,4.0
# From MPC118095
C/2019 M3 (ATLAS),e,99.6059,155.0080,87.9308,4699,0.0000031,0.99948384,0.0000,12/31.2782/2018,2000,g 12.2,4.0
# From MPEC 2023-JA2
C/2019 M4 (TESS),h,09/10.7283/2019,65.6802,52.6482,260.3606,1.001420,9.191053,2000,5.0,4.0
# From MPEC 2023-C45
C/2019 N1 (ATLAS),e,82.4798,13.5410,193.3576,1041,0.0000293,0.99836363,0.0000,11/30.6998/2020,2000,g  7.5,4.0
# From MPEC 2023-CD8
A/2019 N2,e,89.3319,276.2089,347.1200,1281,0.0000215,0.99848307,0.0000,08/22.5625/2019,2000,g 12.5,2.0
# From MPEC 2022-A21
C/2019 NJ3 (Lemmon),h,10/22.6229/2020,99.3635,142.4887,246.8862,1.001782,4.363085,2000,9.0,4.0
# From MPEC 2024-R10
C/2019 O2 (PANSTARRS),e,93.3099,48.2591,129.5926,58.56384,0.0021992,0.83467914,1.2572,10/29.0/2024,2000,g  5.0,4.0
# From MPEC 2024-TP3
C/2019 O3 (Palomar),h,03/09.1856/2021,89.8039,300.4638,60.1217,1.003633,8.821270,2000,3.5,4.0
# From MPEC 2021-P47
A/2019 O4,e,115.0414,354.9286,61.8524,33.26511,0.0051371,0.89044091,8.8455,10/29.0/2024,2000,g 15.5,2.0
# From MPEC 2024-EF7
C/2019 Q1 (Lemmon),h,07/21.7588/2020,155.7290,42.4594,56.2563,1.002071,5.004856,2000,8.5,4.0
# From MPC117072
A/2019 Q2,e,158.9973,188.0764,176.4853,58.61802,0.0021961,0.97845264,0.0000,07/23.0046/2019,2000,g 18.0,2.0
# From MPC117072
P/2019 S2 (PANSTARRS),e,10.4639,93.1818,217.0255,4.746229,0.0953193,0.20480843,198.2283,10/29.0/2024,2000,g 13.5,4.0
# From MPEC 2022-CN4
P/2019 S3 (PANSTARRS),e,8.6935,150.1503,213.0847,3.414914,0.1561832,0.47088365,295.0087,10/29.0/2024,2000,g 18.3,4.0
# From MPEC 2021-S45
C/2019 S4 (Lemmon),e,92.1085,63.1585,71.3731,244.4098,0.0002579,0.98592257,0.0000,04/08.8644/2020,2000,g 11.0,4.0
# From MPEC 2023-N01
A/2019 T1,e,120.8456,6.9395,91.0212,38.82483,0.0040742,0.88983510,5.6344,10/29.0/2024,2000,g 13.0,2.0
# From MPEC 2023-R20
C/2019 T2 (Lemmon),e,111.4092,155.6564,239.4092,4521,0.0000032,0.99941504,0.0000,04/22.6694/2021,2000,g  9.0,4.0
# From MPEC 2023-UR6
C/2019 T3 (ATLAS),e,121.8570,139.5365,112.4755,3660,0.0000045,0.99837337,0.0000,03/04.4366/2021,2000,g  6.8,4.0
# From MPEC 2024-UA9
C/2019 T4 (ATLAS),e,53.6268,199.9233,351.1150,878.0150,0.0000379,0.99517207,0.0000,06/08.6506/2022,2000,g  5.0,4.0
# From MPEC 2021-P47
P/2019 T5 (ATLAS),e,33.4999,247.6108,189.6012,8.004174,0.0435240,0.80984020,83.3032,10/29.0/2024,2000,g 15.0,4.0
# From MPEC 2021-P47
P/2019 T6 (PANSTARRS),e,18.7004,71.2431,329.0405,5.441247,0.0776527,0.62281991,141.0095,10/29.0/2024,2000,g 15.5,4.0
# From MPC118096
P/2019 U4 (PANSTARRS),e,11.6966,200.0128,181.0635,3.519357,0.1492825,0.47588170,278.4263,10/29.0/2024,2000,g 19.0,4.0
# From MPEC 2024-UA9
C/2019 U5 (PANSTARRS),h,03/29.6072/2023,113.5129,2.6257,181.4593,1.000582,3.623852,2000,4.5,4.0
# From MPEC 2022-H04
C/2019 U6 (Lemmon),e,60.9676,235.7854,329.4622,310.7737,0.0001799,0.99707472,0.0000,06/18.2491/2020,2000,g 10.0,4.0
# From MPEC 2022-N37
C/2019 V1 (Borisov),e,61.9467,83.1485,51.1774,2082,0.0000104,0.99851480,0.0000,07/17.1074/2020,2000,g 11.0,4.0
# From MPEC 2022-L66
P/2019 V2 (Groeller),e,11.8069,189.1609,335.6243,7.494796,0.0480357,0.33155905,70.7683,10/29.0/2024,2000,g 10.0,4.0
# From MPEC 2023-A50
P/2019 W1 (PANSTARRS),e,23.4715,35.3721,18.8397,4.548596,0.1015987,0.26730804,202.9665,10/29.0/2024,2000,g 12.9,4.0
# From MPEC 2021-P47
P/2019 X1 (Pruyne),e,10.2488,43.6797,36.9108,6.177343,0.0641950,0.30397611,123.5092,10/29.0/2024,2000,g 10.4,4.0
# From MPEC 2020-C98
P/2019 X2 (Pan-STARRS),e,15.8953,250.8398,213.4749,3.635122,0.1422085,0.50033038,253.7269,10/29.0/2024,2000,g 18.0,4.0
# From MPC119999
C/2019 Y1 (ATLAS),e,73.3427,31.5189,57.9063,87.74046,0.0011992,0.99057509,0.0000,03/16.8433/2020,2000,g 13.7,4.0
# From MPEC 2020-K19
P/2019 Y2 (Fuls),e,4.8766,80.2419,93.3207,3.488959,0.1512378,0.37638516,263.9546,10/29.0/2024,2000,g  9.0,4.0
# From MPEC 2020-C98
P/2019 Y3 (Catalina),e,24.5974,139.2905,2.5669,3.015634,0.1882072,0.69116225,336.4415,10/29.0/2024,2000,g 18.5,4.0
# From MPEC 2024-A43
C/2019 Y4 (ATLAS),e,45.0111,120.7578,177.4297,343.5347,0.0001548,0.99925225,0.0000,05/30.1949/2020,2000,g 11.8,6.0
# From MPEC 2020-L06
C/2019 Y4-A (ATLAS),h,05/30.2371/2020,45.4485,121.1236,177.2628,1.001392,0.255037,2000,11.6,6.0
# From MPEC 2023-J29
C/2019 Y4-B (ATLAS),e,45.1403,120.8653,177.3738,16516,0.0000005,0.99998448,0.0000,05/30.2059/2020,2000,g 12.1,6.0
# From MPEC 2020-L06
C/2019 Y4-C (ATLAS),h,05/30.1892/2020,45.2317,120.8507,177.2958,1.002120,0.256112,2000,12.7,6.0
# From MPEC 2020-L06
C/2019 Y4-D (ATLAS),e,45.2822,121.2160,177.4366,67.80516,0.0017653,0.99623307,0.0000,05/30.3001/2020,2000,g 12.5,6.0
# From MPEC 2023-A50
C/2019 Y5 (PANSTARRS),e,82.7632,51.7525,303.6341,702.7087,0.0000529,0.99298531,0.0000,08/17.0729/2019,2000,g 11.0,4.0
# From MPEC 2023-A50
A/2020 A1,e,149.0322,119.1027,302.4076,25.49146,0.0076579,0.93454870,13.7384,10/29.0/2024,2000,g 18.0,2.0
# From MPEC 2022-YN2
C/2020 A2 (Iwamoto),e,120.5318,286.2141,68.0190,1071,0.0000281,0.99909037,0.0000,01/07.8008/2020,2000,g 13.5,4.0
# From MPEC 2023-A50
C/2020 A3 (ATLAS),e,146.6331,120.8021,268.2695,13734,0.0000006,0.99958106,0.0000,06/27.8331/2019,2000,g  8.0,4.0
# From MPEC 2022-P91
P/2020 A4 (PANSTARRS-Lemmon),e,24.9974,312.3122,144.8422,8.198972,0.0419822,0.65445940,75.6081,10/29.0/2024,2000,g 15.0,4.0
# From MPEC 2020-N08
A/2020 B1,e,18.5325,309.8523,154.8073,51.83055,0.0026413,0.96646186,4.6692,10/29.0/2024,2000,g 21.0,2.0
# From MPEC 2020-HN5
C/2020 B2 (Lemmon),e,55.7526,354.2302,143.5980,67.71660,0.0017687,0.95929106,3.0723,10/29.0/2024,2000,g 10.0,4.0
# From MPEC 2022-N37
C/2020 B3 (Rankin),e,20.7074,185.7932,324.8902,978.2341,0.0000322,0.99659681,0.0000,10/20.1953/2019,2000,g 13.0,4.0
# From MPEC 2023-KD6
P/2020 B4 (Sheppard),e,11.6054,185.9651,341.9863,7.969941,0.0438048,0.19248576,47.1234,10/29.0/2024,2000,g 10.5,4.0
# From MPEC 2024-PC5
C/2020 F2 (ATLAS),h,07/13.2525/2022,163.5896,250.3046,48.2651,1.003767,8.814148,2000,4.5,4.0
# From MPEC 2021-O56
C/2020 F3 (NEOWISE),e,129.1545,61.0976,37.3838,390.8167,0.0001276,0.99924650,0.0000,07/04.4898/2020,2000,g  7.5,5.2
# From MPEC 2024-BE0
C/2020 F5 (MASTER),e,52.2187,350.5176,310.6582,167.2733,0.0004556,0.97413229,0.0000,03/16.6205/2021,2000,g  6.5,3.2
# From MPEC 2020-L06
C/2020 F6 (PANSTARRS),e,174.5835,207.8733,344.4021,360.5005,0.0001440,0.99029365,0.0000,04/11.0385/2020,2000,g 14.5,2.8
# From MPEC 2024-A43
C/2020 F7 (Lemmon),e,93.9684,321.8372,227.9595,554.7978,0.0000754,0.99038671,0.0000,11/13.6526/2021,2000,g  7.0,4.0
# From MPEC 2023-J29
C/2020 F8 (SWAN),h,05/26.4108/2020,110.5544,259.8001,68.0805,1.000101,0.431122,2000,10.0,4.0
# From MPEC 2020-L06
P/2020 G1 (Pimentel),e,18.5116,240.1107,207.6258,3.607249,0.1438600,0.86076898,242.4394,10/29.0/2024,2000,g 17.0,4.0
# From MPEC 2022-YB4
C/2020 H2 (Pruyne),e,124.8013,277.6715,26.6058,181.4669,0.0004032,0.99543207,0.0000,04/27.4231/2020,2000,g 14.0,3.2
# From MPEC 2020-HM1
C/2020 H3 (Wierzchos),p,06/05.7162/2020,62.5292,30.4456,2.300288,270.6227,2000,13.5,4.0
# From MPEC 2020-L06
C/2020 H4 (Leonard),e,84.4949,307.5211,117.5391,47.81965,0.0029805,0.98064576,0.0000,08/29.4794/2020,2000,g 15.0,3.2
# From MPEC 2024-P23
C/2020 H5 (Robinson),e,70.2450,210.6234,326.2770,5046,0.0000028,0.99814946,0.0000,12/09.9830/2020,2000,g  5.0,4.0
# From MPEC 2024-JU4
C/2020 H6 (ATLAS),e,79.9806,213.7102,20.2238,2462,0.0000081,0.99809138,0.0000,09/29.9046/2021,2000,g  8.0,3.2
# From MPEC 2020-KB7
C/2020 H7 (Lemmon),e,135.9235,323.5194,82.6780,1405,0.0000187,0.99685380,0.0000,06/02.9510/2020,2000,g 11.0,4.0
# From MPEC 2021-N06
C/2020 H8 (PANSTARRS),e,99.7071,68.4447,128.8676,597.2426,0.0000675,0.99218399,0.0000,06/04.6657/2020,2000,g 10.5,4.0
# From MPEC 2022-ED3
A/2020 H9,e,137.8767,213.1596,312.6995,353.4051,0.0001484,0.99274124,0.0000,12/21.9308/2019,2000,g 18.0,2.0
# From MPEC 2023-HN7
C/2020 H11 (PANSTARRS-Lemmon),h,09/13.5207/2020,151.3811,303.0534,91.3957,1.000743,7.622088,2000,8.5,4.0
# From MPEC 2023-KD6
C/2020 J1 (SONEAR),h,04/18.3699/2021,142.3060,226.6048,341.6406,1.000113,3.347466,2000,8.5,3.2
# From MPEC 2024-TP3
C/2020 K1 (PANSTARRS),e,89.6719,94.3655,213.9775,4204,0.0000036,0.99926889,0.0000,05/08.9724/2023,2000,g  5.5,4.0
# From MPEC 2021-N06
C/2020 K2 (PANSTARRS),h,08/05.3781/2020,90.9968,288.4255,67.3315,1.002004,8.880474,2000,10.8,4.0
# From MPEC 2020-KF9
C/2020 K3 (Leonard),p,06/01.0032/2020,129.0152,64.4924,1.583069,28.3546,2000,14.5,4.0
